#dP2023  3 24  0  0  0.00000000      96 __u+U ITR00 FIT  IAC
## 2254 432000.00000000   900.00000000 60027 0.0000000000000
+  119   C06C07C08C09C10C11C12C13C14C16C19C20C21C22C23C24C25
+        C26C27C28C29C30C32C33C34C35C36C37C38C39C40C41C42C43
+        C44C45C46E01E02E03E04E05E07E08E09E10E11E12E13E14E15
+        E18E19E21E24E25E26E30E31E33E34E36G01G02G03G04G05G06
+        G07G08G09G10G11G12G13G14G15G16G17G18G19G20G21G22G23
+        G24G25G26G27G28G29G30G31G32J02J03J04R01R02R03R04R05
+        R07R08R09R11R12R13R14R15R16R17R18R19R20R21R22R24R25
++         9  9  8  8  6  7  9  7  7  7  8  8  6  6  7  8  7
++         6  6  6  9  7  8  6  5  5  9  7  9 10  8  7  7  5
++         7  7  6  5  5  4  6  6  7  7  6  7  7  4  4  6  6
++         5  6  5  6  6  5  5  4  6  6  8  8  6  5  5  6  6
++         4  6  5  7  5  5  6  6  5  5  6  5  6  6  6  6  5
++         5  5  4  5  7  6  6  5  7  9  7  8  7  6  5  6  6
++         5  5  5  6  7  7  6  5  7  7  6  8  6  5  4  6  5
%c M  cc GPS ccc cccc cccc cccc cccc ccccc ccccc ccccc ccccc
%c cc cc ccc ccc cccc cccc cccc cccc ccccc ccccc ccccc ccccc
%f  0.0000000  0.000000000  0.00000000000  0.000000000000000
%f  0.0000000  0.000000000  0.00000000000  0.000000000000000
%i    0    0    0    0      0      0      0      0         0
%i    0    0    0    0      0      0      0      0         0
/* INFORMATION & ANALYSIS CENTER (IAC)      ULTRA-RAPID DATA
/* S/V CLOCKS ARE ALIGNED TO GNSS TIME                      
/* G:C1WC2W R:C1PC2P E:C1XC5X C:C2IC6I J:C1CC2S             
/* PCV:IGS20_2247 OL/AL:FES2004  NONE     YN ORB:CoN CLK:CoN
*  2023 03 24 16 30  0.00000000
PC06 -12187.345062  40445.948194   2465.336749   -196.800014
PC07  -5173.991526  28541.941477 -30518.161870    -67.937197
PC08 -17791.210520  23480.582050  30092.177033    514.980150
PC09  -7599.825667  41185.719315  -6576.386465    845.501308
PC10   2860.833492  31259.338551 -27650.847228    -16.685166
PC11   -884.522629  27792.918827   2329.392409    723.890116
PC12 -11316.037334  20821.137739 -14700.831743    526.873175
PC13 -10240.276687  24795.277770  32614.631168    236.952418
PC14   6640.603289  19599.350985  18716.734555     33.208962
PC16 -13675.371175  39729.156699   5295.325574    129.553456
PC19 -15779.300348 -19789.382832 -11749.189772   -897.182248
PC20   1512.904010 -16978.055682 -22082.577140    662.885338
PC21 -19313.241774   3601.925618  19850.938780   -908.834202
PC22 -24813.678090 -11385.794384   5859.864878   -570.002824
PC23  21801.908598   2852.423681 -17187.999417   -893.229085
PC24 -14577.963025  18974.608728 -14357.176989   -255.535137
PC25   6628.194029  14910.885065 -22649.227076     93.456664
PC26 -24850.572942  12625.335711    860.699279    -96.454099
PC27  14678.480955 -12964.384720  19852.119768    115.325885
PC28  15124.130429   7011.977462  22382.091960     84.623876
PC29  -7154.930342 -24538.657691 -11198.494959     97.818608
PC30   5517.018255 -26460.632397   6874.612286      0.725968
PC32  19305.552443  -3703.454360 -19779.610225   -592.798122
PC33  15756.230680  19726.748169  11878.112943   -871.215106
PC34  -4772.682349  26917.005187  -5691.976782    133.639909
PC35 -15262.505071  -7562.807918 -22109.203568    658.684001
PC36  -5496.608744 -15429.376832  22611.034495   -544.262678
PC37  25478.707830 -11208.172489  -2157.485216   -798.137080
PC38 -24928.583985  24779.248715  23226.332052     67.123800
PC39 -14860.908553  37835.104379  11670.440519     -2.300123
PC40  -8097.797913  23332.129781 -34148.743418    -18.439384
PC41  24758.009888  11762.110298  -5155.267139   -763.388382
PC42  -2975.071841  16387.483411  22435.955427   -770.988105
PC43   6635.858629  25028.444465  10430.922156     13.319516
PC44 -14385.196227  13330.617131 -19879.890139     54.339780
PC45 -22002.399430  -2447.673607  16971.197695    -76.278493
PC46  13158.518280 -19060.989990  15586.150421    -42.124301
PE01  12283.305445  15963.342991 -21698.917855    -12.682105
PE02 -12769.546518 -15850.330001  21475.458711     28.242603
PE03 -12980.185386 -26606.430995    371.951299   -662.350747
PE04  19867.895536  13709.027250 -17120.269222    -85.434081
PE05   1734.598298 -24150.196085 -17019.350153    -83.388255
PE07 -15320.947848   7425.639885  24223.786269    -32.318719
PE08 -19799.723536 -13913.579732  17058.236303    -56.283967
PE09  15254.420474  -7212.934753 -24311.514508   -880.355889
PE10  20500.905298  -7194.627672  20094.947292   -521.423151
PE11  21062.694259 -16874.340824  12122.177982   1363.177594
PE12  16937.439024   2863.361225  24100.015414   -471.069197
PE13 -21113.449769  16276.778055 -12875.347212    -17.975122
PE14 -19225.906190 -22522.114080 -12895.376031    177.498240
PE15 -16718.648772  -3112.990668 -24223.582364     -9.687089
PE18  13176.596536  17781.010485   8322.472851   -246.045414
PE19  11214.257776  27307.067315   2215.831902  -2931.304424
PE21  -8506.911351  15598.134178 -23681.217455   -519.370629
PE24  26616.830498  -5752.328079  11613.457604  -1182.960009
PE25   8894.410624 -15505.435868  23592.829128   -601.950632
PE26 -12557.586063  25979.796428   6619.921967     54.916700
PE30 -27950.043146  -7024.536885   6703.538242    -36.875827
PE31  28207.518746   6543.136511  -6157.528634   -519.423021
PE33   2474.133272  20535.677649  21185.018305   -448.248817
PE34  -2658.023488 -20417.735872 -21269.657947    -36.586721
PE36  13089.433745 -25882.889695  -5863.671362    -31.011397
PG01  13600.415965 -22144.950358  -4777.905872    199.638921
PG02  -9264.890406  24017.995551   7646.249396   -611.904230
PG03   9296.299254 -13182.611387 -21201.691786   -343.862298
PG04   2694.120647 -21932.373519 -14643.397115      0.375934
PG05 -23343.453928   5795.928468  11227.869042   -120.720442
PG06 -13858.733401  -5637.767144 -21889.500374    583.468559
PG07   1739.697939 -21113.020681  16157.106988    216.406072
PG08  10858.745898 -11844.157389  21014.403861   -114.465187
PG09  -6728.957376 -25078.691711  -5544.996276   -194.213528
PG10  20633.972346  11353.943041  12755.628585    -29.896801
PG11 -20339.001834   7523.388044 -15303.973349   -140.248716
PG12 -12342.205285  11955.251363 -20509.887307   -355.460842
PG13 -14458.032862   3761.630049  21785.160897    495.408136
PG14 -17997.051177 -13386.717017  14337.046919      4.915946
PG15  -9388.684423  13695.196758  20228.109873     24.427683
PG16  25110.192638   -764.229904   8992.396616   -513.473368
PG17 -12953.618647 -21635.371631  -7744.258166    707.161168
PG18    788.943787  19069.395078  18409.902205   -193.697338
PG19 -15782.207146 -14086.607444 -16460.486576    294.363420
PG20 -26377.515519   1686.723623   1050.519842    443.049243
PG21  16978.673733 -19163.458060   5672.511357    154.329936
PG22  16312.224507  10775.000548 -17610.885747    451.354777
PG23   9620.569345  14677.881507  19985.036066     12.461497
PG24 -14323.501827  22084.010117    252.887582   -124.628347
PG25   -329.034071  15575.114009 -21837.723652    430.249438
PG26  25997.377247   4791.713998  -4169.946859    241.976166
PG27  15903.711784    446.924997  21092.261975     73.989716
PG28  13227.746955   7590.389724 -21773.790686     51.035587
PG29   1932.934588  24968.943757  -8770.490835   -592.376898
PG30  -9223.708504 -13385.386648  21071.279603   -525.551446
PG31  17145.150792   1821.383009 -20492.947843   -212.373015
PG32  15690.547633  18968.639495 -10055.529440   -432.570254
PJ02 -31738.642934  15381.134079 -18504.173232     -1.288780
PJ03 -23654.873641  31551.320890 -10284.651536      1.322367
PJ04 -27020.295923  26169.889677  25070.033741     94.149708
PR01  15463.466621  18833.020237   7525.559533     25.364027
PR02  19714.902785  11903.377998 -10987.356372    -23.080651
PR03  12618.741031  -2351.508905 -22001.361755     74.763470
PR04  -1440.154461 -14791.756223 -20693.536659    180.632499
PR05 -14536.046474 -19327.315878  -8061.450537    109.848022
PR07 -11997.887890   3139.918039  22328.235925     52.412575
PR08   1588.078254  14995.799637  20646.010678    -70.045000
PR09 -22301.337481    749.391063  12444.885461    110.920678
PR11 -12097.465288  12900.786710 -18381.319629    -23.764245
PR12   8038.582828   8839.670952 -22519.190444     25.901790
PR13  21300.203668    375.782016 -14051.732599    -33.257413
PR14  23240.710152  -9464.143278   4537.865991     24.470905
PR15  11051.804943 -12883.793274  19052.675503     90.264509
PR16  -7718.842019  -8787.456637  22675.480386     12.740221
PR17  11716.174806 -14747.580128  17225.023237    615.156064
PR18   7333.902494 -24288.999341   2325.632814     73.068840
PR19    488.374585 -22103.128598 -12720.173414   -226.503043
PR20  -9359.951285  -4730.798607 -23243.029883    -89.903952
PR21 -11553.211603  16117.485136 -16034.850055   -382.776039
PR22  -7823.446022  24251.803805  -1342.093571     76.286021
PR24  10165.892325   3899.444661  23082.665606    156.343721
PR25 -12624.468392  13866.762764 -17280.220780     58.681032
EOF
